#cP2005  4 23 00 00 00.00000000    8638 U+u   IGS00 FIT DEOS
## 1319 518400.00000000    10.00000000 53483 0.0000000000000
+    1   L06  0  0  0  0  0  0  0  0  0  0  0  0  0  0  0  0
+          0  0  0  0  0  0  0  0  0  0  0  0  0  0  0  0  0
+          0  0  0  0  0  0  0  0  0  0  0  0  0  0  0  0  0
+          0  0  0  0  0  0  0  0  0  0  0  0  0  0  0  0  0
+          0  0  0  0  0  0  0  0  0  0  0  0  0  0  0  0  0
++         0  0  0  0  0  0  0  0  0  0  0  0  0  0  0  0  0
++         0  0  0  0  0  0  0  0  0  0  0  0  0  0  0  0  0
++         0  0  0  0  0  0  0  0  0  0  0  0  0  0  0  0  0
++         0  0  0  0  0  0  0  0  0  0  0  0  0  0  0  0  0
++         0  0  0  0  0  0  0  0  0  0  0  0  0  0  0  0  0
%c cc cc ccc ccc cccc cccc cccc cccc ccccc ccccc ccccc ccccc
%c cc cc ccc ccc cccc cccc cccc cccc ccccc ccccc ccccc ccccc
%f   .0000000   .000000000   .00000000000   .000000000000000
%f   .0000000   .000000000   .00000000000   .000000000000000
%i    0    0    0    0      0      0      0      0         0
%i    0    0    0    0      0      0      0      0         0
/* NOTE: CCCCCCCCCCCCCCCCCCCCCCCCCCCCCCCCCCCCCCCCCCCCCCCCCCC
/* CCCCCCCCCCCCCCCCCCCCCCCCCCCCCCCCCCCCCCCCCCCCCCCCCCCCCCCCC
/* CCCCCCCCCCCCCCCCCCCCCCCCCCCCCCCCCCCCCCCCCCCCCCCCCCCCCCCCC
/* CCCCCCCCCCCCCCCCCCCCCCCCCCCCCCCCCCCCCCCCCCCCCCCCCCCCCCCCC
*  2005 04 23 16 47 30.00000000
PL06   -624.216377   6323.276632  -2254.694342 999999.999999
*  2005 04 23 16 47 40.00000000
PL06   -625.957806   6348.426478  -2182.163641 999999.999999
*  2005 04 23 16 47 50.00000000
PL06   -627.582028   6372.755930  -2109.348114 999999.999999
*  2005 04 23 16 48 00.00000000
PL06   -629.090026   6396.261595  -2036.257244 999999.999999
*  2005 04 23 16 48 10.00000000
PL06   -630.482801   6418.940191  -1962.900549 999999.999999
*  2005 04 23 16 48 20.00000000
PL06   -631.761377   6440.788545  -1889.287584 999999.999999
*  2005 04 23 16 48 30.00000000
PL06   -632.926796   6461.803592  -1815.427940 999999.999999
*  2005 04 23 16 48 40.00000000
PL06   -633.980119   6481.982378  -1741.331241 999999.999999
*  2005 04 23 16 48 50.00000000
PL06   -634.922427   6501.322060  -1667.007145 999999.999999
*  2005 04 23 16 49 00.00000000
PL06   -635.754818   6519.819903  -1592.465340 999999.999999
*  2005 04 23 16 49 10.00000000
PL06   -636.478408   6537.473288  -1517.715546 999999.999999
*  2005 04 23 16 49 20.00000000
PL06   -637.094334   6554.279704  -1442.767509 999999.999999
*  2005 04 23 16 49 30.00000000
PL06   -637.603746   6570.236754  -1367.631007 999999.999999
*  2005 04 23 16 49 40.00000000
PL06   -638.007816   6585.342154  -1292.315840 999999.999999
*  2005 04 23 16 49 50.00000000
PL06   -638.307729   6599.593731  -1216.831836 999999.999999
*  2005 04 23 16 50 00.00000000
PL06   -638.504688   6612.989428  -1141.188845 999999.999999
*  2005 04 23 16 50 10.00000000
PL06   -638.599914   6625.527300  -1065.396740 999999.999999
*  2005 04 23 16 50 20.00000000
PL06   -638.594642   6637.205516   -989.465413 999999.999999
*  2005 04 23 16 50 30.00000000
PL06   -638.490123   6648.022360   -913.404780 999999.999999
*  2005 04 23 16 50 40.00000000
PL06   -638.287625   6657.976230   -837.224771 999999.999999
*  2005 04 23 16 50 50.00000000
PL06   -637.988427   6667.065639   -760.935335 999999.999999
*  2005 04 23 16 51 00.00000000
PL06   -637.593828   6675.289215   -684.546438 999999.999999
*  2005 04 23 16 51 10.00000000
PL06   -637.105138   6682.645702   -608.068057 999999.999999
*  2005 04 23 16 51 20.00000000
PL06   -636.523681   6689.133958   -531.510185 999999.999999
*  2005 04 23 16 51 30.00000000
PL06   -635.850796   6694.752959   -454.882827 999999.999999
*  2005 04 23 16 51 40.00000000
PL06   -635.087835   6699.501794   -378.195996 999999.999999
*  2005 04 23 16 51 50.00000000
PL06   -634.236162   6703.379671   -301.459715 999999.999999
*  2005 04 23 16 52 00.00000000
PL06   -633.297155   6706.385914   -224.684017 999999.999999
*  2005 04 23 16 52 10.00000000
PL06   -632.272203   6708.519962   -147.878938 999999.999999
*  2005 04 23 16 52 20.00000000
PL06   -631.162709   6709.781373    -71.054522 999999.999999
*  2005 04 23 16 52 30.00000000
PL06   -629.970086   6710.169821      5.779187 999999.999999
*  2005 04 23 16 52 40.00000000
PL06   -628.695759   6709.685096     82.612140 999999.999999
*  2005 04 23 16 52 50.00000000
PL06   -627.341162   6708.327106    159.434287 999999.999999
*  2005 04 23 16 53 00.00000000
PL06   -625.907744   6706.095876    236.235581 999999.999999
*  2005 04 23 16 53 10.00000000
PL06   -624.396959   6702.991549    313.005977 999999.999999
*  2005 04 23 16 53 20.00000000
PL06   -622.810276   6699.014382    389.735430 999999.999999
*  2005 04 23 16 53 30.00000000
PL06   -621.149168   6694.164752    466.413903 999999.999999
*  2005 04 23 16 53 40.00000000
PL06   -619.415123   6688.443151    543.031364 999999.999999
*  2005 04 23 16 53 50.00000000
PL06   -617.609633   6681.850189    619.577788 999999.999999
*  2005 04 23 16 54 00.00000000
PL06   -615.734200   6674.386593    696.043160 999999.999999
*  2005 04 23 16 54 10.00000000
PL06   -613.790336   6666.053206    772.417475 999999.999999
*  2005 04 23 16 54 20.00000000
PL06   -611.779556   6656.850987    848.690737 999999.999999
*  2005 04 23 16 54 30.00000000
PL06   -609.703388   6646.781014    924.852968 999999.999999
*  2005 04 23 16 54 40.00000000
PL06   -607.563361   6635.844480   1000.894199 999999.999999
*  2005 04 23 16 54 50.00000000
PL06   -605.361016   6624.042693   1076.804480 999999.999999
*  2005 04 23 16 55 00.00000000
PL06   -603.097897   6611.377080   1152.573878 999999.999999
*  2005 04 23 16 55 10.00000000
PL06   -600.775553   6597.849180   1228.192476 999999.999999
*  2005 04 23 16 55 20.00000000
PL06   -598.395542   6583.460651   1303.650379 999999.999999
*  2005 04 23 16 55 30.00000000
PL06   -595.959424   6568.213266   1378.937713 999999.999999
*  2005 04 23 16 55 40.00000000
PL06   -593.468765   6552.108910   1454.044624 999999.999999
*  2005 04 23 16 55 50.00000000
PL06   -590.925135   6535.149587   1528.961285 999999.999999
*  2005 04 23 16 56 00.00000000
PL06   -588.330108   6517.337413   1603.677891 999999.999999
*  2005 04 23 16 56 10.00000000
PL06   -585.685262   6498.674618   1678.184665 999999.999999
*  2005 04 23 16 56 20.00000000
PL06   -582.992178   6479.163547   1752.471856 999999.999999
*  2005 04 23 16 56 30.00000000
PL06   -580.252439   6458.806659   1826.529744 999999.999999
*  2005 04 23 16 56 40.00000000
PL06   -577.467632   6437.606526   1900.348636 999999.999999
*  2005 04 23 16 56 50.00000000
PL06   -574.639345   6415.565834   1973.918874 999999.999999
*  2005 04 23 16 57 00.00000000
PL06   -571.769170   6392.687379   2047.230830 999999.999999
*  2005 04 23 16 57 10.00000000
PL06   -568.858696   6368.974072   2120.274912 999999.999999
*  2005 04 23 16 57 20.00000000
PL06   -565.909517   6344.428935   2193.041561 999999.999999
*  2005 04 23 16 57 30.00000000
PL06   -562.923225   6319.055101   2265.521257 999999.999999
*  2005 04 23 16 57 40.00000000
PL06   -559.901415   6292.855815   2337.704517 999999.999999
*  2005 04 23 16 57 50.00000000
PL06   -556.845680   6265.834433   2409.581895 999999.999999
*  2005 04 23 16 58 00.00000000
PL06   -553.757612   6237.994421   2481.143988 999999.999999
*  2005 04 23 16 58 10.00000000
PL06   -550.638803   6209.339354   2552.381435 999999.999999
*  2005 04 23 16 58 20.00000000
PL06   -547.490845   6179.872919   2623.284917 999999.999999
*  2005 04 23 16 58 30.00000000
PL06   -544.315326   6149.598907   2693.845160 999999.999999
*  2005 04 23 16 58 40.00000000
PL06   -541.113834   6118.521223   2764.052935 999999.999999
*  2005 04 23 16 58 50.00000000
PL06   -537.887954   6086.643874   2833.899061 999999.999999
*  2005 04 23 16 59 00.00000000
PL06   -534.639269   6053.970976   2903.374403 999999.999999
*  2005 04 23 16 59 10.00000000
PL06   -531.369356   6020.506754   2972.469878 999999.999999
*  2005 04 23 16 59 20.00000000
PL06   -528.079792   5986.255533   3041.176452 999999.999999
*  2005 04 23 16 59 30.00000000
PL06   -524.772149   5951.221746   3109.485140 999999.999999
*  2005 04 23 16 59 40.00000000
PL06   -521.447993   5915.409931   3177.387013 999999.999999
*  2005 04 23 16 59 50.00000000
PL06   -518.108889   5878.824728   3244.873191 999999.999999
*  2005 04 23 17 00 00.00000000
PL06   -514.756395   5841.470882   3311.934851 999999.999999
*  2005 04 23 17 00 10.00000000
PL06   -511.392065   5803.353241   3378.563225 999999.999999
*  2005 04 23 17 00 20.00000000
PL06   -508.017447   5764.476758   3444.749601 999999.999999
*  2005 04 23 17 00 30.00000000
PL06   -504.634083   5724.846487   3510.485330 999999.999999
*  2005 04 23 17 00 40.00000000
PL06   -501.243510   5684.467583   3575.761819 999999.999999
*  2005 04 23 17 00 50.00000000
PL06   -497.847259   5643.345300   3640.570539 999999.999999
*  2005 04 23 17 01 00.00000000
PL06   -494.446852   5601.484994   3704.903023 999999.999999
*  2005 04 23 17 01 10.00000000
PL06   -491.043805   5558.892117   3768.750867 999999.999999
*  2005 04 23 17 01 20.00000000
PL06   -487.639627   5515.572220   3832.105732 999999.999999
*  2005 04 23 17 01 30.00000000
PL06   -484.235817   5471.530952   3894.959343 999999.999999
*  2005 04 23 17 01 40.00000000
PL06   -480.833869   5426.774058   3957.303494 999999.999999
*  2005 04 23 17 01 50.00000000
PL06   -477.435267   5381.307377   4019.130048 999999.999999
*  2005 04 23 17 02 00.00000000
PL06   -474.041484   5335.136843   4080.430933 999999.999999
*  2005 04 23 17 02 10.00000000
PL06   -470.653988   5288.268483   4141.198152 999999.999999
*  2005 04 23 17 02 20.00000000
PL06   -467.274233   5240.708418   4201.423775 999999.999999
*  2005 04 23 17 02 30.00000000
PL06   -463.903665   5192.462857   4261.099945 999999.999999
*  2005 04 23 17 02 40.00000000
PL06   -460.543721   5143.538104   4320.218877 999999.999999
*  2005 04 23 17 02 50.00000000
PL06   -457.195823   5093.940550   4378.772863 999999.999999
EOF
